{"type":"Topology","arcs":[[[69819,99853],[1565,-255],[827,-292],[176,7],[1120,-110],[1067,-138],[1771,-372],[246,-117],[-187,-102],[-440,-66],[-2264,-117],[-4104,-153],[-2351,-285],[-745,-14],[-65,-431],[317,-22],[522,58],[1841,431],[686,66],[1284,-37],[1671,-160],[669,58],[1202,-44],[1401,124],[1660,270],[451,-598],[610,-591],[487,65],[410,-36],[141,-190],[229,-87],[469,43],[1436,-167],[985,-307],[370,-139],[176,-204],[105,-161],[-158,-204],[-616,-358],[-780,-328],[-1049,-248],[-1214,-161],[-9311,-533],[-317,-124],[-182,-321],[123,-416],[434,-66],[1015,234],[1759,226],[1296,-14],[3090,-190],[909,-496],[480,-767],[1073,175],[229,132],[170,226],[129,241],[106,263],[111,175],[123,95],[264,80],[616,95],[1606,95],[387,-29],[282,-358],[59,-204],[17,-278],[-6,-328],[-35,-402],[-141,-394],[-445,-686],[-358,-379],[-387,-270],[-739,-614],[-258,-167],[-809,-723],[-205,-328],[-12,-249],[141,-43],[234,226],[88,168],[153,168],[1202,452],[258,124],[780,540],[504,205],[410,211],[217,146],[1208,1066],[628,314],[656,0],[118,-533],[791,-88],[346,22],[551,-131],[241,-102],[410,-59],[428,-124],[370,132],[111,87],[364,394],[486,343],[452,431],[152,110],[241,94],[246,37],[674,204],[170,15],[364,-66],[1601,-36],[879,-103],[1220,-291],[850,-154],[393,-146],[569,-299],[463,-314],[217,-95],[-12,-95],[-158,-138],[-1143,-482],[-376,-328],[-1085,-606],[-527,-212],[-575,-80],[-639,-15],[-416,-87],[-59,-88],[293,-248],[129,-183],[-17,-160],[-311,-234],[-117,-58],[-1126,-175],[-569,-299],[-739,-37],[-522,37],[-721,-322],[281,-262],[259,-117],[803,-234],[6,-138],[-387,-278],[-522,-321],[-616,-226],[-234,-37],[-294,59],[-269,-15],[-593,-102],[-568,-15],[-1015,146],[-545,168],[-287,59],[-364,-15],[-141,-66],[-574,-408],[-282,-278],[-182,-284],[-76,-307],[30,-336],[70,-233],[111,-124],[135,-73],[241,-44],[521,44],[206,-22],[64,-73],[112,-212],[-18,-204],[-100,-285],[-70,-328],[-53,-380],[30,-211],[211,-44],[99,14],[112,-65],[135,-154],[99,-160],[65,-168],[-35,-139],[-135,-109],[-305,-124],[-751,-241],[-76,-73],[-59,-153],[-41,-219],[-93,-205],[-135,-182],[-129,-110],[-247,-43],[-316,-8],[-358,-102],[-844,-613],[-12,-66],[317,-197],[-12,-175],[-393,-737],[-106,-365],[-82,-496],[-140,-424],[-194,-343],[-193,-401],[-182,-445],[29,-343],[241,-241],[328,190],[405,627],[433,278],[475,-88],[411,-124],[528,-248],[445,-154],[381,-204],[153,-168],[158,-241],[6,-146],[-281,-87],[-94,29],[-698,394],[-340,102],[-452,-116],[-392,-183],[351,-722],[381,-329],[687,-153],[363,-161],[258,-204],[205,-102],[276,43],[375,205],[516,7],[235,-95],[164,-189],[76,-344],[-17,-510],[-53,-380],[-94,-255],[-188,-343],[-158,-66],[-217,22],[-205,65],[-188,125],[-287,94],[-575,103],[-574,226],[-329,58],[-686,-29],[-745,-146],[-29,-182],[-1067,-650],[-217,7],[-293,219],[-417,219],[-240,0],[-363,-277],[-88,-102],[5,-102],[264,-234],[106,-51],[141,-44],[469,-58],[211,-59],[193,-730],[305,-445],[135,-95],[111,-36],[382,22],[486,146],[164,-117],[358,-146],[211,-44],[252,7],[288,-51],[393,-416],[-153,-525],[246,-416],[393,-431],[88,-153],[41,-285],[6,-189],[29,-176],[53,-153],[53,-306],[53,-453],[-12,-372],[-88,-285],[-158,-212],[-247,-131],[-199,37],[-152,197],[-217,211],[-282,227],[-469,21],[-686,-656],[-305,-37],[-246,-66],[-270,-284],[-387,-175],[-346,65],[-604,336],[217,-219],[317,-263],[193,-138],[147,-30],[158,30],[229,109],[516,299],[135,44],[117,-22],[94,-87],[111,-256],[123,-423],[-17,-358],[-153,-299],[-134,-190],[-106,-87],[0,-66],[287,-73],[405,387],[129,482],[188,554],[328,183],[375,-183],[305,-518],[422,-956],[182,-102],[229,-227],[99,-284],[-23,-329],[-53,-240],[-70,-154],[-88,-95],[-158,-58],[-294,-51],[-650,102],[-341,0],[41,-328],[-686,-285],[-779,-109],[-733,218],[-610,343],[199,475],[117,525],[-299,351],[-64,7],[105,-540],[-88,-204],[-334,-256],[-234,-109],[-18,-73],[111,-59],[77,-109],[35,-168],[-41,-168],[-112,-175],[-64,-139],[-12,-117],[106,-146],[223,-160],[240,-80],[1120,-37],[451,-95],[1068,-387],[47,-124],[-182,-700],[-100,-672],[-205,-124],[-1120,-29],[-364,-102],[-527,-307],[-511,-372],[-263,-7],[-1044,328],[-399,212],[-862,613],[-645,934],[-299,-387],[-176,-190],[-187,-94],[-182,-15],[-176,66],[-199,146],[-329,343],[-399,335],[-275,161],[-6,-44],[158,-197],[241,-233],[604,-672],[217,-168],[-24,-117],[-381,-109],[-463,-226],[-229,-175],[-352,-409],[-117,-66],[-528,-102],[-170,22],[-393,233],[-580,146],[-346,132],[-481,241],[170,-263],[921,-402],[99,-124],[-187,-240],[-117,-88],[-217,-22],[-329,51],[-328,-7],[-340,-73],[-141,-88],[47,-109],[76,-102],[117,-88],[106,0],[258,277],[193,15],[517,-66],[521,212],[376,95],[281,22],[1026,321],[217,365],[340,146],[768,109],[739,-58],[381,-44],[311,-343],[411,-248],[346,-270],[404,-95],[235,-365],[651,-416],[416,-88],[258,-197],[23,-832],[30,-357],[-112,-993],[-334,-226],[65,-526],[-88,-423],[-335,161],[-340,277],[-815,430],[-762,278],[-293,255],[-346,190],[-475,796],[-305,985],[-135,489],[-258,29],[-334,-131],[-287,-139],[-141,-233],[-985,-329],[-358,-219],[-205,0],[-733,-328],[293,-161],[135,-22],[299,88],[182,117],[668,321],[540,51],[193,138],[411,190],[281,59],[41,-51],[29,-88],[194,-1204],[-82,-321],[-223,-139],[-469,-226],[-123,-110],[135,-197],[445,183],[293,197],[153,-73],[252,-300],[287,-153],[722,-467],[346,-255],[480,-249],[546,-343],[140,-124],[499,-175],[105,-58],[211,-606],[170,-73],[499,-37],[-88,-233],[-487,-526],[-252,-160],[-59,-110],[24,-182],[12,-307],[99,-569],[118,526],[76,248],[111,73],[100,14],[340,234],[340,-124],[88,-591],[47,-555],[-29,-482],[35,-737],[-12,-255],[82,-212],[82,-905],[82,-270],[-170,-241],[-516,-102],[-205,117],[-510,-44],[0,219],[-29,241],[0,175],[-36,153],[-23,890],[-147,-226],[-5,-175],[-41,-182],[-88,-964],[-129,-233],[-411,58],[-404,-37],[-223,37],[-757,438],[-293,394],[-258,598],[-164,555],[-59,518],[-181,416],[-300,329],[-357,263],[-411,204],[-363,255],[-311,322],[-340,240],[-375,183],[-528,73],[-780,-29],[-522,197],[-129,-15],[-123,-102],[94,-292],[604,-131],[463,-37],[616,22],[375,-73],[141,-168],[94,-306],[52,-431],[-123,-343],[-445,-380],[-229,-182],[-686,-343],[-229,-73],[-569,-29],[-439,36],[-575,168],[-323,37],[-674,21],[-158,-58],[176,-182],[287,-103],[199,-124],[24,-233],[-76,-351],[-77,-240],[-123,-183],[-440,-343],[-181,-109],[-827,-365],[-59,-73],[194,14],[522,124],[152,0],[856,-313],[680,14],[1384,292],[112,-7],[93,-44],[88,-109],[94,-168],[-111,-168],[-317,-161],[-492,-160],[-211,-110],[-206,-160],[-375,-387],[-111,-409],[398,-153],[176,197],[211,430],[194,256],[446,175],[551,-88],[422,103],[868,423],[152,29],[1273,-248],[1155,-474],[604,-183],[809,-102],[1442,51],[129,-80],[-47,-168],[-82,-146],[-240,-197],[-293,-132],[-182,-36],[-158,-95],[-346,-95],[-88,-73],[123,-328],[-59,-51],[-305,-8],[-516,-211],[-422,14],[-88,-36],[82,-73],[82,-153],[94,-234],[-53,-161],[-187,-94],[-141,-30],[-498,132],[-82,-22],[76,-95],[41,-146],[12,-204],[-124,-168],[-252,-132],[-475,-372],[-205,-109],[-434,-88],[-88,-51],[176,-285],[-23,-116],[-288,-307],[-445,-197],[-59,-102],[-41,-278],[-35,-109],[-117,-161],[-417,-306],[-299,-153],[-146,-124],[-182,-205],[-235,-117],[-275,-7],[-264,-80],[-434,-219],[-299,-73],[-956,-387],[-446,-58],[-387,-139],[-803,-365],[-375,-117],[-264,-138],[-287,-37],[-469,88],[-253,7],[-158,-58],[-141,-110],[-234,-306],[-200,-30],[-656,249],[17,-110],[170,-263],[-5,-189],[-393,-190],[-211,-51],[-305,80],[-411,204],[-528,431],[-639,650],[-310,218],[23,-211],[70,-205],[118,-197],[29,-146],[-76,-87],[-94,-44],[-117,0],[-18,-51],[194,-314],[146,-321],[-12,-299],[-181,-285],[-153,-168],[-129,-51],[-762,-715],[-217,-95],[-94,-88],[-82,-131],[-223,-591],[-88,-183],[-176,-233],[-76,-44],[-23,-95],[35,-153],[-53,-248],[-129,-358],[-446,-971],[-357,-912],[-159,-299],[-117,-124],[-70,43],[-176,-21],[-88,-161],[-76,-292],[-88,-219],[-94,-153],[-715,-650],[-188,-124],[-164,80],[-200,-29],[-410,343],[-70,124],[-264,285],[11,-146],[47,-80],[36,-124],[93,-146],[200,-767],[-159,-160],[-146,-183],[-370,-306],[-398,-511],[-147,-139],[-29,416],[17,124],[-228,197],[6,-138],[-24,-139],[-158,-540],[-47,-95],[-82,22],[-176,-102],[-176,51],[-153,241],[-64,131],[-276,-350],[-135,7],[-23,-292],[-129,-270],[-176,-117],[-240,8],[-147,-154],[-322,168],[-77,321],[258,438],[71,183],[-47,219],[64,284],[493,913],[334,459],[-17,88],[-452,95],[-399,160],[-387,59],[-170,-59],[270,-262],[387,-256],[-194,-248],[-158,-263],[-170,-708],[-111,-292],[-422,336],[-194,117],[123,-372],[370,-351],[23,-116],[0,-416],[-709,-365],[-733,-59],[-534,-102],[-891,-131],[-346,0],[-30,-139],[874,-650],[129,-116],[-123,-219],[-182,-139],[-281,-474],[-147,-168],[-369,-227],[-675,256],[-346,-117],[-334,80],[-6,-277],[100,-197],[100,-504],[223,44],[281,153],[223,-379],[141,-635],[252,-328],[111,-249],[47,-240],[-158,-234],[-323,-336],[-363,-58],[23,-263],[-158,-190],[-329,51],[-152,132],[-164,65],[-657,73],[663,-510],[234,-234],[106,139],[228,36],[341,-131],[-59,-861],[152,-694],[18,-153],[-364,-416],[-5,-394],[-212,-110],[-234,29],[-12,-430],[-158,-263],[29,-168],[47,-146],[-147,-277],[-129,-329],[-181,-284],[-100,29],[-293,-22],[-352,22],[-287,380],[-118,124],[-134,80],[52,-241],[82,-146],[264,-270],[481,-336],[-12,-241],[-129,-102],[-305,-649],[-105,-8],[-135,-168],[-422,52],[-176,65],[-516,-36],[-176,51],[-152,-22],[140,-183],[299,-167],[335,-168],[510,-124],[-18,-234],[-129,-197],[76,-285],[-58,-211],[-24,-248],[-117,-570],[135,-394],[152,-190],[-17,-255],[70,-401],[-223,-365],[-193,14],[-264,-80],[-94,-161],[428,-146],[-41,-277],[-111,-336],[-123,-730],[-247,-1255],[-117,-1248],[-534,-1029],[-187,-22],[-47,-44],[-264,51],[-405,241],[-316,73],[-211,7],[-30,-116],[176,-197],[270,-73],[217,-132],[387,-117],[135,-226],[94,-241],[-18,-138],[0,-154],[70,-854],[-181,-292],[-141,-270],[-481,37],[-88,95],[-463,277],[29,-131],[334,-380],[118,-190],[-77,-36],[-134,-15],[-194,-131],[-340,73],[18,190],[64,197],[-158,-29],[-170,-103],[-106,37],[-82,-7],[-47,95],[-70,386],[82,197],[281,504],[88,270],[-76,117],[-199,-285],[-211,-460],[-94,-277],[-129,-58],[-323,146],[-926,642],[29,387],[-12,328],[270,37],[200,146],[175,168],[194,313],[182,519],[-24,43],[-527,-664],[-329,-219],[-158,-44],[-82,103],[-258,211],[-170,95],[-393,161],[-70,80],[-112,66],[-158,678],[205,825],[135,234],[88,277],[53,365],[-36,161],[-117,-59],[-53,-124],[6,-197],[-64,-131],[-469,-314],[-464,-256],[-222,-240],[-141,-190],[-112,-183],[-170,15],[-240,-37],[-158,-116],[-241,73],[-152,175],[-188,22],[-205,-88],[-147,7],[12,-116],[94,-300],[-158,-21],[-305,-8],[-153,80],[-117,117],[-100,161],[59,204],[487,380],[222,219],[-140,73],[-469,-66],[-83,51],[-310,-29],[11,562],[-76,139],[-6,65],[-105,154],[-106,43],[-64,51],[-528,132],[-70,314],[-36,321],[-99,401],[-252,102],[-141,176],[111,175],[47,226],[-117,102],[-76,161],[11,102],[-93,277],[-30,219],[106,197],[299,234],[100,95],[52,102],[340,168],[-293,117],[-181,21],[-135,-58],[-123,-226],[-112,-146],[-451,-51],[-65,80],[-29,314],[23,248],[188,343],[-217,168],[-194,58],[-228,161],[-205,168],[-176,197],[-170,226],[-59,29],[64,248],[36,197],[5,424],[-70,182],[153,365],[211,394],[457,599],[-487,-285],[-398,-628],[-88,-29],[-30,117],[-152,401],[-112,110],[-52,124],[-229,212],[-100,168],[-140,321],[-200,379],[-281,752],[-458,869],[-117,489],[147,613],[-159,423],[434,197],[622,226],[322,183],[188,51],[399,36],[129,183],[-217,-44],[-147,22],[-12,88],[53,153],[35,197],[-76,-37],[-387,-335],[-569,-270],[-445,-154],[-76,8],[-153,-95],[-94,-22],[-64,22],[-159,262],[-46,168],[287,460],[211,628],[281,409],[194,51],[334,-22],[117,-37],[-41,241],[18,117],[270,146],[310,58],[223,-44],[141,-284],[182,-526],[240,-175],[-12,248],[-123,329],[-47,496],[-158,212],[-129,102],[-358,-51],[-211,365],[-52,138],[0,176],[-217,525],[-71,263],[-111,343],[-59,22],[76,-438],[100,-307],[141,-678],[70,-278],[-94,-211],[-181,-219],[-159,-125],[-375,-153],[82,336],[47,328],[-188,-116],[-176,-241],[-58,-329],[-117,-299],[-335,-737],[-135,-409],[-123,-197],[-140,-58],[-124,160],[-105,373],[-53,299],[-6,759],[18,357],[-59,475],[-182,1117],[-41,394],[-305,211],[-5,66],[-82,226],[-59,227],[53,87],[70,59],[457,335],[341,373],[410,583],[164,183],[598,139],[264,21],[-6,103],[-88,43],[-398,-29],[-540,-233],[-94,-88],[-234,-365],[-182,-197],[-510,-452],[-329,0],[-340,540],[-381,-103],[-258,37],[-76,80],[-59,745],[211,868],[-222,8],[-47,36],[-118,197],[-76,59],[53,102],[551,408],[827,811],[358,313],[217,139],[170,153],[199,343],[65,146],[117,117],[234,139],[258,204],[423,460],[52,168],[-88,36],[-199,-153],[-399,-423],[-287,-234],[-973,-1058],[-417,-380],[-223,-248],[-176,-233],[-187,-168],[-194,-102],[-416,-73],[-205,-88],[-123,66],[-59,503],[41,292],[-18,292],[106,424],[152,291],[65,161],[29,117],[323,306],[176,132],[123,306],[709,110],[182,-8],[94,37],[76,95],[-70,66],[-211,51],[-569,-15],[-522,58],[-234,52],[-118,-30],[-187,88],[-206,168],[-322,627],[129,803],[12,387],[404,336],[217,109],[311,256],[416,430],[493,263],[252,51],[211,-44],[768,-372],[399,-73],[352,95],[440,-131],[774,-540],[146,80],[-41,131],[-868,570],[6,168],[223,43],[234,161],[-129,102],[-574,-88],[-170,-131],[-557,-73],[-288,117],[-263,58],[-393,241],[-329,-80],[-205,-95],[-363,-95],[-135,-58],[-716,-774],[-299,-161],[-217,52],[153,503],[41,197],[0,219],[64,292],[364,562],[234,613],[94,387],[182,44],[246,-59],[739,-248],[616,-292],[451,-80],[299,-7],[129,95],[100,160],[41,110],[29,233],[36,88],[99,95],[200,357],[64,249],[-64,145],[-141,-14],[-264,-95],[-35,-44],[6,-73],[-258,-394],[-276,-87],[-645,-132],[-293,-7],[-522,182],[-76,66],[-53,139],[-639,-37],[-194,-36],[-152,14],[76,234],[200,255],[281,832],[240,212],[469,197],[493,-29],[850,-642],[258,-59],[235,51],[563,219],[105,88],[200,263],[234,459],[-12,110],[-357,-256],[-194,-73],[-164,0],[153,840],[58,635],[53,160],[481,-51],[651,88],[152,139],[0,65],[-264,80],[-123,183],[-223,-58],[-293,-117],[-363,14],[29,270],[270,577],[29,263],[105,525],[6,270],[141,263],[422,183],[182,116],[6,117],[-252,467],[64,132],[200,116],[76,81],[-53,58],[-182,51],[-287,-102],[-311,-51],[-275,153],[-217,73],[-141,-22],[-369,-263],[-135,-7],[-159,73],[-1073,226],[-129,81],[-381,394],[-317,263],[-422,284],[-545,219],[-668,146],[-399,139],[-200,197],[-340,431],[-258,364],[-47,176],[153,219],[152,160],[294,132],[498,-44],[270,-59],[293,-124],[223,-22],[463,30],[469,-73],[281,-88],[370,-182],[1008,-774],[423,-270],[187,-29],[757,-285],[117,0],[311,139],[35,87],[-106,81],[-334,73],[-393,313],[-246,249],[-23,416],[29,233],[58,110],[47,350],[-228,212],[-159,65],[-422,314],[-35,73],[199,37],[200,-22],[428,-154],[223,-21],[164,58],[17,66],[-258,175],[-328,321],[-674,44],[-440,-37],[-282,110],[-299,175],[-187,51],[-393,-117],[-199,-7],[-182,36],[-176,555],[47,168],[140,73],[106,182],[70,190],[235,183],[1272,408],[323,307],[-12,51],[-217,-58],[-281,-139],[-182,-29],[-751,175],[-117,-37],[-305,-255],[-410,-277],[-188,14],[-258,168],[-41,117],[-18,139],[282,189],[88,102],[182,278],[-12,131],[-305,-73],[-41,124],[6,219],[-29,270],[-77,270],[-252,416],[-105,103],[-88,153],[-194,562],[59,138],[170,103],[29,51],[-404,-88],[-41,-95],[76,-146],[53,-189],[35,-234],[52,-212],[147,-226],[117,-117],[194,-314],[82,-350],[-24,-182],[-152,-190],[-235,-197],[-76,-168],[-29,-168],[-188,-153],[-111,58],[-94,7],[106,-270],[70,-284],[-82,-278],[-223,-175],[-117,0],[-241,-138],[-604,-73],[-211,29],[-387,146],[-457,73],[-182,190],[-234,343],[-123,306],[0,277],[64,198],[129,124],[158,795],[223,642],[563,665],[158,240],[53,125],[0,102],[-88,58],[-692,-817],[-428,-88],[-123,183],[35,328],[77,80],[345,-36],[135,182],[-217,278],[-228,73],[-53,65],[234,212],[546,-15],[123,146],[199,161],[217,292],[82,248],[18,212],[-47,168],[-6,167],[41,176],[-58,189],[-153,205],[-334,204],[-100,-226],[-105,-95],[-147,-22],[-141,95],[-140,36],[-141,88],[-141,22],[-58,73],[-36,190],[-6,248],[165,117],[228,94],[153,168],[99,248],[18,278],[-70,292],[-188,270],[-340,-263],[-135,-66],[-35,190],[-47,139],[-141,182],[-193,132],[-182,95],[-6,138],[41,153],[82,176],[106,379],[117,-36],[94,36],[-53,307],[-94,262],[-111,146],[-6,66],[-23,73],[-82,183],[-94,138],[-170,380],[-118,138],[-152,81],[-164,0],[-264,-95],[-487,-117],[-387,-58],[-64,29],[193,146],[288,153],[375,102],[111,248],[-41,212],[12,204],[-100,219],[100,117],[340,117],[158,22],[153,153],[-434,365],[-452,241],[-117,102],[-100,161],[-88,219],[-140,226],[-194,226],[-281,219],[-733,394],[-247,278],[-234,416],[-111,182],[-124,132],[-510,313],[-58,132],[521,365],[53,146],[-211,445],[-223,321],[-240,117],[-352,58],[-328,146],[-293,226],[-299,168],[-446,161],[-739,409],[-1143,430],[-510,256],[-305,95],[-399,21],[-774,241],[-651,73],[-405,-29],[-129,37],[-299,240],[-463,139],[-240,-51],[-299,-263],[-364,-255],[-188,-29],[-287,233],[-141,161],[-134,58],[-135,-58],[-252,-212],[-241,-153],[-358,-183],[-287,-87],[-369,-22],[-94,-66],[-141,-7],[-187,58],[-182,124],[-164,175],[-147,103],[-129,14],[-293,-95],[-370,-270],[-170,-65],[-140,22],[-176,87],[-346,219],[-194,-22],[-140,-73],[35,-182],[328,-431],[293,-306],[-246,-37],[-2158,416],[-270,102],[-398,248],[-329,154],[-563,394],[-433,219],[-141,160],[-35,117],[134,161],[874,525],[329,102],[680,132],[158,80],[53,58],[-176,117],[-886,-44],[-791,81],[-686,204],[-123,73],[-112,124],[-117,190],[29,204],[165,234],[93,160],[30,81],[-862,-562],[-352,-205],[-282,66],[-199,95],[-94,102],[6,117],[29,80],[59,51],[-457,241],[-206,183],[-23,189],[164,197],[159,139],[158,88],[422,80],[1542,146],[1103,-139],[375,467],[252,154],[745,153],[1143,22],[809,-88],[376,-109],[516,-241],[29,73],[-123,219],[-12,182],[211,314],[94,197],[-65,212],[-222,212],[-405,277],[-211,22],[-241,-66],[-287,-153],[-598,-387],[-287,-80],[-469,-22],[-258,51],[-253,58],[-392,205],[-147,36],[-170,-87],[-205,-219],[-200,-154],[-187,-87],[-176,-37],[-252,15],[-1015,343],[-234,153],[-12,226],[-311,219],[-352,37],[-46,80],[451,336],[334,139],[-58,43],[-481,8],[-329,-183],[-187,-29],[-434,-7],[-452,95],[-193,80],[-199,182],[-223,102],[-675,154],[-152,87],[-147,139],[-551,401],[-334,292],[-47,161],[387,358],[18,87],[-165,153],[-70,110],[59,161],[334,343],[129,94],[604,205],[610,292],[217,65],[199,22],[797,-22],[247,73],[211,146],[340,146],[721,219],[1595,336],[106,44],[5,58],[-140,175],[-30,88],[323,153],[739,241],[504,117],[323,14],[263,52],[370,153],[205,29],[1255,58],[557,-87],[270,7],[176,59],[234,175],[434,430],[223,263],[217,409],[281,642],[205,620],[141,606],[106,372],[76,132],[258,168],[276,131],[463,117],[-41,51],[-200,88],[-181,36],[-170,-22],[-311,-131],[-405,-95],[-393,15],[-281,-37],[-258,-124],[-416,-102],[-282,22],[-504,182],[-252,37],[-645,-22],[-188,73],[-164,124],[-135,182],[-94,234],[12,248],[234,438],[88,117],[628,496],[387,226],[387,175],[281,95],[264,51],[252,103],[469,343],[481,292],[598,547],[293,146],[1015,233],[275,8],[235,-66],[223,-117],[621,-540],[53,15],[-111,204],[-229,613],[41,248],[358,270],[146,44],[376,-14],[604,-81],[410,-95],[305,-146],[369,-94],[188,7],[135,66],[193,233],[253,394],[99,482],[-47,569],[-76,424],[-94,262],[53,219],[305,263],[281,190],[669,277],[539,66],[323,-15],[422,-131],[586,-73],[534,-248],[856,-570],[569,-284],[475,-132],[463,-211],[686,-467],[364,-197],[211,-73],[187,-8],[-70,132],[-328,270],[-499,306],[-1120,548],[-610,387],[-551,437],[-404,263],[-739,256],[12,102],[885,365],[1630,321],[1835,241],[616,-22],[1079,102],[106,161],[228,65],[1009,219],[287,0],[446,-109],[469,-197],[217,-175],[299,-307],[146,-431],[-23,-1357],[6,-263],[58,-95],[206,146],[246,278],[217,189],[170,300],[117,408],[71,300],[-288,335],[-11,555],[140,299],[405,0],[1665,-1022],[651,-226],[745,-547],[873,58],[804,-66],[352,22],[175,81],[-246,233],[-1143,621],[-516,489],[-364,613],[-88,328],[276,58],[1272,-7],[1918,-284],[2451,-971],[1202,-329],[2163,-1124],[651,-168],[264,-36],[200,139],[123,153],[6,197],[-106,255],[-59,285],[-17,336],[146,649],[352,219],[153,241],[-141,431],[-411,299],[-1589,766],[-5,95],[322,103],[475,58],[3935,-183],[680,-73],[293,-65],[123,-81],[164,-43],[845,109],[-18,190],[-106,117],[-4567,328],[-851,117],[-433,7],[-452,-87],[-926,-44],[-428,14],[-558,395],[505,467],[422,-8],[803,-182],[481,255],[756,212],[751,73],[1630,460],[305,36],[381,-22],[839,-116],[334,-110],[381,-241],[223,-73],[264,-14],[357,-110],[522,351],[475,379],[540,241],[768,-139],[487,-182],[439,-219],[628,-117],[1067,-744],[199,0],[94,58],[100,139],[35,204],[129,277],[-94,103],[-891,306],[-170,124],[-170,190],[0,161],[164,131],[176,58],[574,-58],[188,44],[182,109],[217,197],[170,51],[387,8],[592,-132],[516,-7],[188,58],[29,124],[47,81],[59,36],[1882,8],[463,29],[370,95],[445,14],[387,-58],[487,-124],[475,7],[715,197],[674,95],[3718,-29],[1220,-117]],[[32719,42588],[546,-343],[574,-234],[53,-109],[47,-161],[12,-88],[-18,-80],[-35,-73],[41,-87],[123,-117],[12,-139],[-147,-226],[-199,-256],[-1073,-525],[-376,-95],[-938,-358],[-287,15],[-65,15],[-175,160],[-247,146],[-111,117],[-100,168],[41,102],[176,36],[258,0],[381,117],[-105,110],[-100,65],[-70,139],[-159,-22],[-117,81],[-223,51],[-592,51],[-387,138],[-117,81],[-100,146],[-88,204],[129,796],[88,197],[199,65],[493,-175],[65,80],[-540,292],[-193,168],[-59,139],[-35,204],[0,117],[23,117],[47,124],[135,160],[539,256],[599,-88],[1026,-314],[129,-72],[316,-271],[604,-824]],[[35516,40938],[-252,-146],[-53,37],[-52,109],[-129,511],[-41,248],[29,300],[-47,211],[229,256],[187,36],[252,-58],[423,-256],[-30,-80],[-94,-131],[-258,-176],[-88,-386],[-17,-197],[12,-146],[-71,-132]],[[31412,47200],[-153,-29],[-440,212],[-70,80],[-29,102],[17,117],[141,219],[264,314],[188,58],[117,-197],[117,-270],[12,-131],[-6,-161],[-29,-138],[-53,-110],[-76,-66]],[[28996,54558],[-229,-285],[-187,-168],[-411,-482],[-70,-22],[-106,66],[-88,131],[-152,30],[-53,80],[-23,66],[-71,43],[-105,22],[-176,-51],[-159,51],[-123,212],[223,146],[141,124],[533,44],[147,-51],[94,0],[146,29],[317,153],[47,73],[281,-87],[24,-124]],[[1876,73622],[-580,-37],[-569,161],[-199,124],[11,197],[83,66],[310,65],[258,15],[170,-29],[411,-117],[293,-117],[194,-36],[-53,-176],[-329,-116]],[[45531,93627],[-328,-73],[-692,445],[-1091,446],[-961,292],[-903,781],[-71,277],[124,241],[791,36],[633,110],[1607,-482],[809,-409],[270,-328],[-41,-672],[-147,-664]],[[77183,46697],[59,-248],[6,-117],[-12,-102],[-35,-66],[-76,-66],[146,-160],[41,-110],[12,-87],[-94,-175],[-645,-227],[-181,-109],[-223,-270],[-276,-226],[-94,0],[-105,240],[-434,176],[-815,-95],[-950,-219],[-340,-102],[-170,51],[-53,87],[0,110],[111,343],[47,87],[217,110],[147,299],[-47,321],[59,453],[146,73],[375,-161],[241,-36],[428,-22],[580,58],[464,183],[844,518],[147,-8],[111,-182],[76,-88],[252,-146],[41,-87]],[[88207,92627],[-170,-131],[-428,51],[-551,380],[-364,313],[-29,365],[188,161],[293,29],[404,-314],[417,-423],[240,-431]],[[89919,84132],[-686,-482],[-1020,36],[-604,227],[-176,328],[235,372],[733,300],[914,182],[833,-109],[117,-373],[-346,-481]],[[87668,76344],[-217,-146],[-147,445],[-129,591],[-29,672],[334,328],[170,81],[117,-81],[-29,-292],[0,-598],[111,-401],[-181,-599]],[[88342,68228],[-188,-117],[-633,1745],[0,635],[41,481],[287,37],[247,-263],[117,-1000],[129,-1518]],[[89286,65557],[129,-446],[59,-408],[205,-256],[428,37],[170,-482],[-311,-190],[-1255,73],[-516,-36],[-357,299],[11,518],[47,518],[358,300],[299,-263],[364,190],[369,146]],[[89362,74950],[-316,0],[-118,109],[77,198],[439,620],[147,51],[217,-66],[64,-321],[-140,-321],[-370,-270]],[[58291,24035],[-252,0],[-83,328],[24,365],[287,109],[153,-248],[-59,-365],[-70,-189]],[[43250,4065],[-187,-511],[-188,110],[-94,226],[-181,110],[-200,-30],[-6,88],[645,540],[311,146],[-23,-226],[-59,-197],[-18,-256]],[[34437,46420],[-217,-15],[-504,80],[-41,44],[-6,95],[71,270],[222,36],[264,-146],[288,-211],[35,-95],[-112,-58]]],"transform":{"scale":[0.0006139562790641856,0.00023785221172513684],"translate":[-72.81972819728198,59.81462605469807]},"objects":{"c50-1":{"type":"GeometryCollection","geometries":[{"arcs":[[[0]],[[1]],[[2]],[[3]],[[4]],[[5]],[[6]],[[7]],[[8]],[[9]],[[10]],[[11]],[[12]],[[13]],[[14]],[[15]],[[16]]],"type":"MultiPolygon","properties":{"n":"Greenland","o":"Denmark","s":18860101,"e":20191231},"id":"304"}]}}}